ONEWEB-0687             
1 61595U 24188B   25041.19716165  .00005165  00000+0  62361-3 0  9994
2 61595  86.5775 122.0167 0005046 157.4764 202.6682 14.83593503 17997
ONEWEB-0688             
1 61596U 24188C   25040.93063220  .00005029  00000+0  60717-3 0  9995
2 61596  86.5785 122.1536 0004542 156.4298 203.7135 14.83591636 19678
ONEWEB-0689             
1 61597U 24188D   25040.91667824 -.00920861  00000+0 -39787+0 0  9995
2 61597  86.9595 123.5164 0002786 153.8405 133.9294 14.27522849 17691
ONEWEB-0690             
1 61598U 24188E   25041.25002315 -.00547447  00000+0 -17751+0 0  9994
2 61598  87.0035 123.3886 0007355 162.7067 342.7904 14.41515571 17746
ONEWEB-0691             
1 61599U 24188F   25040.91667824 -.00770299  00000+0 -32059+0 0  9990
2 61599  86.9523 123.5576 0005350 154.9352  12.0342 14.29405501  5666
ONEWEB-0692             
1 61600U 24188G   25040.91667824 -.00781982  00000+0 -33135+0 0  9990
2 61600  86.9576 123.5587 0002283 171.2888 160.1557 14.28529735  5722
ONEWEB-0693             
1 61601U 24188H   25040.93104801  .00004375  00000+0  52791-3 0  9999
2 61601  86.5698 122.0458 0002861 145.9552 214.1855 14.83588302 19679
ONEWEB-0695             
1 61602U 24188J   25040.91667824 -.00888719  00000+0 -38042+0 0  9990
2 61602  86.9510 123.5552 0002774 147.0058 181.1840 14.27900099 17815
